[{"OBJECT_NAME":"STARLINK-34166","OBJECT_ID":"2025-112N","EPOCH":"2026-03-09T22:53:54.227904","MEAN_MOTION":15.05654652,"ECCENTRICITY":0.00016334,"INCLINATION":97.6036,"RA_OF_ASC_NODE":121.714,"ARG_OF_PERICENTER":137.9777,"MEAN_ANOMALY":222.1575,"EPHEMERIS_TYPE":0,"CLASSIFICATION_TYPE":"U","NORAD_CAT_ID":64158,"ELEMENT_SET_NO":999,"REV_AT_EPOCH":4334,"BSTAR":0.00042861522,"MEAN_MOTION_DOT":6.13e-5,"MEAN_MOTION_DDOT":0},{"OBJECT_NAME":"HELIOS 1A","OBJECT_ID":"1995-033A","EPOCH":"2026-03-09T15:20:38.403168","MEAN_MOTION":15.05208405,"ECCENTRICITY":0.0012543,"INCLINATION":98.2085,"RA_OF_ASC_NODE":312.7113,"ARG_OF_PERICENTER":11.1866,"MEAN_ANOMALY":348.9636,"EPHEMERIS_TYPE":0,"CLASSIFICATION_TYPE":"U","NORAD_CAT_ID":23605,"ELEMENT_SET_NO":999,"REV_AT_EPOCH":65318,"BSTAR":0.00025897,"MEAN_MOTION_DOT":3.631e-5,"MEAN_MOTION_DDOT":0}]
